<?xml version="1.0" encoding="UTF-8"?>
<gpx version="1.1" creator="Trekking (graficaesiti.it)" xmlns="http://www.topografix.com/GPX/1/1">
  <metadata>
    <name>Anello del Monte Bulgheria</name>
    <desc>Traccia di esempio dettagliata per la PWA Trekking — dati sintetici a scopo dimostrativo, non rilevati sul campo.</desc>
  </metadata>
  <trk>
    <name>Anello del Monte Bulgheria</name>
    <trkseg>
      <trkpt lat="40.051013" lon="15.351944"><ele>318.9</ele></trkpt>
      <trkpt lat="40.051036" lon="15.35217"><ele>327.4</ele></trkpt>
      <trkpt lat="40.05117" lon="15.352268"><ele>334.0</ele></trkpt>
      <trkpt lat="40.051178" lon="15.352485"><ele>343.5</ele></trkpt>
      <trkpt lat="40.051274" lon="15.35271"><ele>354.5</ele></trkpt>
      <trkpt lat="40.051425" lon="15.352959"><ele>365.4</ele></trkpt>
      <trkpt lat="40.05156" lon="15.353197"><ele>378.4</ele></trkpt>
      <trkpt lat="40.051668" lon="15.353513"><ele>387.7</ele></trkpt>
      <trkpt lat="40.051813" lon="15.353797"><ele>400.3</ele></trkpt>
      <trkpt lat="40.051859" lon="15.354147"><ele>416.1</ele></trkpt>
      <trkpt lat="40.052048" lon="15.354425"><ele>429.1</ele></trkpt>
      <trkpt lat="40.052187" lon="15.354673"><ele>442.4</ele></trkpt>
      <trkpt lat="40.052297" lon="15.354983"><ele>457.0</ele></trkpt>
      <trkpt lat="40.052393" lon="15.355266"><ele>465.6</ele></trkpt>
      <trkpt lat="40.052476" lon="15.355475"><ele>477.9</ele></trkpt>
      <trkpt lat="40.052587" lon="15.355706"><ele>490.7</ele></trkpt>
      <trkpt lat="40.052735" lon="15.355996"><ele>503.1</ele></trkpt>
      <trkpt lat="40.052808" lon="15.356246"><ele>518.0</ele></trkpt>
      <trkpt lat="40.05296" lon="15.356551"><ele>526.2</ele></trkpt>
      <trkpt lat="40.053081" lon="15.356764"><ele>539.4</ele></trkpt>
      <trkpt lat="40.053217" lon="15.357085"><ele>552.4</ele></trkpt>
      <trkpt lat="40.053304" lon="15.357371"><ele>565.8</ele></trkpt>
      <trkpt lat="40.053378" lon="15.357536"><ele>575.7</ele></trkpt>
      <trkpt lat="40.053496" lon="15.357812"><ele>591.1</ele></trkpt>
      <trkpt lat="40.053666" lon="15.358073"><ele>601.9</ele></trkpt>
      <trkpt lat="40.053739" lon="15.358385"><ele>613.2</ele></trkpt>
      <trkpt lat="40.053844" lon="15.358538"><ele>625.9</ele></trkpt>
      <trkpt lat="40.053961" lon="15.3588"><ele>639.8</ele></trkpt>
      <trkpt lat="40.054091" lon="15.358967"><ele>652.5</ele></trkpt>
      <trkpt lat="40.05422" lon="15.359149"><ele>659.9</ele></trkpt>
      <trkpt lat="40.054305" lon="15.359397"><ele>675.8</ele></trkpt>
      <trkpt lat="40.054456" lon="15.359506"><ele>686.0</ele></trkpt>
      <trkpt lat="40.054632" lon="15.359727"><ele>701.2</ele></trkpt>
      <trkpt lat="40.054744" lon="15.359824"><ele>712.2</ele></trkpt>
      <trkpt lat="40.054854" lon="15.360038"><ele>722.2</ele></trkpt>
      <trkpt lat="40.054975" lon="15.360136"><ele>735.3</ele></trkpt>
      <trkpt lat="40.055083" lon="15.360379"><ele>749.7</ele></trkpt>
      <trkpt lat="40.05519" lon="15.360468"><ele>758.4</ele></trkpt>
      <trkpt lat="40.05537" lon="15.360653"><ele>771.1</ele></trkpt>
      <trkpt lat="40.055466" lon="15.360765"><ele>782.5</ele></trkpt>
      <trkpt lat="40.055596" lon="15.360902"><ele>797.6</ele></trkpt>
      <trkpt lat="40.05569" lon="15.360987"><ele>807.3</ele></trkpt>
      <trkpt lat="40.055757" lon="15.36125"><ele>821.9</ele></trkpt>
      <trkpt lat="40.055938" lon="15.361333"><ele>829.5</ele></trkpt>
      <trkpt lat="40.056047" lon="15.361562"><ele>841.4</ele></trkpt>
      <trkpt lat="40.056113" lon="15.361612"><ele>856.4</ele></trkpt>
      <trkpt lat="40.056237" lon="15.36177"><ele>866.6</ele></trkpt>
      <trkpt lat="40.056314" lon="15.361938"><ele>880.2</ele></trkpt>
      <trkpt lat="40.056398" lon="15.362083"><ele>890.0</ele></trkpt>
      <trkpt lat="40.056521" lon="15.362234"><ele>900.3</ele></trkpt>
      <trkpt lat="40.056639" lon="15.36244"><ele>912.3</ele></trkpt>
      <trkpt lat="40.056692" lon="15.362533"><ele>922.6</ele></trkpt>
      <trkpt lat="40.056772" lon="15.362745"><ele>934.0</ele></trkpt>
      <trkpt lat="40.05686" lon="15.362845"><ele>947.2</ele></trkpt>
      <trkpt lat="40.056963" lon="15.363107"><ele>959.6</ele></trkpt>
      <trkpt lat="40.057053" lon="15.363197"><ele>969.7</ele></trkpt>
      <trkpt lat="40.057174" lon="15.363357"><ele>982.2</ele></trkpt>
      <trkpt lat="40.05732" lon="15.363574"><ele>992.6</ele></trkpt>
      <trkpt lat="40.057459" lon="15.363721"><ele>1000.4</ele></trkpt>
      <trkpt lat="40.057547" lon="15.363933"><ele>1013.6</ele></trkpt>
      <trkpt lat="40.057699" lon="15.36415"><ele>1027.6</ele></trkpt>
      <trkpt lat="40.057769" lon="15.364308"><ele>1035.8</ele></trkpt>
      <trkpt lat="40.057966" lon="15.364482"><ele>1046.3</ele></trkpt>
      <trkpt lat="40.058058" lon="15.364697"><ele>1058.0</ele></trkpt>
      <trkpt lat="40.058168" lon="15.364952"><ele>1069.8</ele></trkpt>
      <trkpt lat="40.05835" lon="15.365106"><ele>1078.7</ele></trkpt>
      <trkpt lat="40.058487" lon="15.365339"><ele>1093.8</ele></trkpt>
      <trkpt lat="40.058602" lon="15.36554"><ele>1100.0</ele></trkpt>
      <trkpt lat="40.058679" lon="15.365666"><ele>1111.1</ele></trkpt>
      <trkpt lat="40.058754" lon="15.365886"><ele>1123.4</ele></trkpt>
      <trkpt lat="40.058879" lon="15.366133"><ele>1129.8</ele></trkpt>
      <trkpt lat="40.058998" lon="15.366356"><ele>1141.4</ele></trkpt>
      <trkpt lat="40.059118" lon="15.366533"><ele>1146.3</ele></trkpt>
      <trkpt lat="40.059204" lon="15.36677"><ele>1157.6</ele></trkpt>
      <trkpt lat="40.059336" lon="15.366955"><ele>1164.2</ele></trkpt>
      <trkpt lat="40.059447" lon="15.367138"><ele>1177.1</ele></trkpt>
      <trkpt lat="40.059513" lon="15.367404"><ele>1181.9</ele></trkpt>
      <trkpt lat="40.059616" lon="15.367574"><ele>1193.1</ele></trkpt>
      <trkpt lat="40.059714" lon="15.36773"><ele>1201.7</ele></trkpt>
      <trkpt lat="40.059802" lon="15.367997"><ele>1207.2</ele></trkpt>
      <trkpt lat="40.059896" lon="15.368205"><ele>1212.7</ele></trkpt>
      <trkpt lat="40.06001" lon="15.368367"><ele>1218.6</ele></trkpt>
      <trkpt lat="40.060004" lon="15.368593"><ele>1222.2</ele></trkpt>
      <trkpt lat="40.060053" lon="15.368783"><ele>1225.1</ele></trkpt>
      <trkpt lat="40.060062" lon="15.368995"><ele>1227.5</ele></trkpt>
      <trkpt lat="40.06016" lon="15.36915"><ele>1223.3</ele></trkpt>
      <trkpt lat="40.060098" lon="15.369462"><ele>1225.2</ele></trkpt>
      <trkpt lat="40.060146" lon="15.369615"><ele>1219.1</ele></trkpt>
      <trkpt lat="40.060125" lon="15.369878"><ele>1217.7</ele></trkpt>
      <trkpt lat="40.060112" lon="15.370096"><ele>1210.2</ele></trkpt>
      <trkpt lat="40.06006" lon="15.370275"><ele>1208.0</ele></trkpt>
      <trkpt lat="40.060027" lon="15.37047"><ele>1199.0</ele></trkpt>
      <trkpt lat="40.0599" lon="15.370722"><ele>1192.8</ele></trkpt>
      <trkpt lat="40.059886" lon="15.37093"><ele>1184.7</ele></trkpt>
      <trkpt lat="40.059823" lon="15.371047"><ele>1177.9</ele></trkpt>
      <trkpt lat="40.059777" lon="15.371263"><ele>1167.0</ele></trkpt>
      <trkpt lat="40.059658" lon="15.37132"><ele>1157.3</ele></trkpt>
      <trkpt lat="40.059608" lon="15.371455"><ele>1148.8</ele></trkpt>
      <trkpt lat="40.059522" lon="15.371506"><ele>1139.6</ele></trkpt>
      <trkpt lat="40.059366" lon="15.371481"><ele>1131.3</ele></trkpt>
      <trkpt lat="40.059347" lon="15.371544"><ele>1119.6</ele></trkpt>
      <trkpt lat="40.059212" lon="15.371484"><ele>1103.8</ele></trkpt>
      <trkpt lat="40.059073" lon="15.371537"><ele>1094.2</ele></trkpt>
      <trkpt lat="40.059003" lon="15.371482"><ele>1077.7</ele></trkpt>
      <trkpt lat="40.058822" lon="15.371314"><ele>1066.4</ele></trkpt>
      <trkpt lat="40.058747" lon="15.371258"><ele>1050.9</ele></trkpt>
      <trkpt lat="40.058545" lon="15.37121"><ele>1037.1</ele></trkpt>
      <trkpt lat="40.058479" lon="15.371071"><ele>1021.7</ele></trkpt>
      <trkpt lat="40.05825" lon="15.370921"><ele>1003.3</ele></trkpt>
      <trkpt lat="40.058186" lon="15.370774"><ele>990.1</ele></trkpt>
      <trkpt lat="40.058027" lon="15.370544"><ele>973.6</ele></trkpt>
      <trkpt lat="40.057815" lon="15.370435"><ele>957.9</ele></trkpt>
      <trkpt lat="40.057675" lon="15.370237"><ele>939.8</ele></trkpt>
      <trkpt lat="40.057531" lon="15.370028"><ele>922.3</ele></trkpt>
      <trkpt lat="40.057352" lon="15.369732"><ele>906.1</ele></trkpt>
      <trkpt lat="40.057271" lon="15.369579"><ele>888.8</ele></trkpt>
      <trkpt lat="40.057091" lon="15.369252"><ele>874.9</ele></trkpt>
      <trkpt lat="40.056919" lon="15.369039"><ele>852.9</ele></trkpt>
      <trkpt lat="40.056792" lon="15.36866"><ele>839.2</ele></trkpt>
      <trkpt lat="40.05656" lon="15.368348"><ele>818.4</ele></trkpt>
      <trkpt lat="40.05643" lon="15.368056"><ele>801.0</ele></trkpt>
      <trkpt lat="40.056234" lon="15.367738"><ele>782.5</ele></trkpt>
      <trkpt lat="40.056032" lon="15.36744"><ele>761.1</ele></trkpt>
      <trkpt lat="40.05591" lon="15.367076"><ele>746.2</ele></trkpt>
      <trkpt lat="40.055707" lon="15.36674"><ele>726.0</ele></trkpt>
      <trkpt lat="40.055456" lon="15.366382"><ele>707.4</ele></trkpt>
      <trkpt lat="40.055283" lon="15.366041"><ele>691.1</ele></trkpt>
      <trkpt lat="40.055078" lon="15.365609"><ele>670.9</ele></trkpt>
      <trkpt lat="40.054868" lon="15.365231"><ele>650.2</ele></trkpt>
      <trkpt lat="40.054641" lon="15.364921"><ele>633.1</ele></trkpt>
      <trkpt lat="40.054446" lon="15.364489"><ele>611.1</ele></trkpt>
      <trkpt lat="40.054171" lon="15.364013"><ele>590.7</ele></trkpt>
      <trkpt lat="40.053914" lon="15.363669"><ele>572.2</ele></trkpt>
      <trkpt lat="40.053672" lon="15.363231"><ele>549.8</ele></trkpt>
      <trkpt lat="40.05343" lon="15.362853"><ele>532.9</ele></trkpt>
      <trkpt lat="40.053166" lon="15.362316"><ele>512.3</ele></trkpt>
      <trkpt lat="40.05298" lon="15.361893"><ele>495.2</ele></trkpt>
      <trkpt lat="40.052774" lon="15.361471"><ele>474.6</ele></trkpt>
      <trkpt lat="40.052522" lon="15.360922"><ele>458.1</ele></trkpt>
      <trkpt lat="40.052362" lon="15.360535"><ele>441.8</ele></trkpt>
      <trkpt lat="40.052192" lon="15.360015"><ele>428.5</ele></trkpt>
      <trkpt lat="40.052071" lon="15.359471"><ele>416.0</ele></trkpt>
      <trkpt lat="40.051932" lon="15.358834"><ele>406.7</ele></trkpt>
      <trkpt lat="40.05182" lon="15.358228"><ele>394.1</ele></trkpt>
      <trkpt lat="40.051655" lon="15.357681"><ele>384.5</ele></trkpt>
      <trkpt lat="40.051542" lon="15.356933"><ele>376.9</ele></trkpt>
      <trkpt lat="40.051486" lon="15.356327"><ele>367.4</ele></trkpt>
      <trkpt lat="40.05145" lon="15.355636"><ele>361.0</ele></trkpt>
      <trkpt lat="40.051366" lon="15.354987"><ele>352.7</ele></trkpt>
      <trkpt lat="40.051263" lon="15.354388"><ele>345.3</ele></trkpt>
      <trkpt lat="40.051236" lon="15.35379"><ele>338.9</ele></trkpt>
      <trkpt lat="40.051122" lon="15.353192"><ele>334.3</ele></trkpt>
      <trkpt lat="40.051116" lon="15.352743"><ele>329.3</ele></trkpt>
      <trkpt lat="40.051024" lon="15.35228"><ele>323.0</ele></trkpt>
      <trkpt lat="40.050979" lon="15.351979"><ele>320.2</ele></trkpt>
    </trkseg>
  </trk>
</gpx>
